HXMT (HUIYAN)           
1 42758U 17034A   26064.89402994  .00007309  00000+0  36568-3 0  9993
2 42758  43.0151  37.7735 0032555 212.7899 147.0929 15.17400681481965
SAOCOM 1A               
1 43641U 18076A   26064.84488841  .00000524  00000+0  72382-4 0  9999
2 43641  97.8884 253.0718 0001293  81.6747 278.4613 14.82164717400790
H-2A R/B                
1 43682U 18084L   26064.57776740  .00024381  00000+0  58318-3 0  9990
2 43682  98.8727 281.0878 0025756  39.2012 321.1089 15.41138735405148
SAOCOM 1B               
1 46265U 20059A   26064.80859668  .00001105  00000+0  14535-3 0  9994
2 46265  97.8882 252.1340 0001464  82.8296 277.3083 14.82169536298176
CSS (TIANHE)            
1 48274U 21035A   26064.81179226  .00018150  00000+0  21787-3 0  9992
2 48274  41.4658 231.7522 0006853 249.1722 110.8383 15.60440439277002
COSMOS 2550             
1 48865U 21056A   26064.86570436 -.00000196  00000+0 -12093-6 0  9990
2 48865  67.1448  52.4987 0008465 269.5568  90.4616 15.33837189262871
CZ-2C R/B               
1 52794U 22058K   26064.78302197  .00037731  00000+0  55687-3 0  9993
2 52794  50.1901 338.3810 0042185 184.2205 175.8415 15.53901570209528
CZ-2C R/B               
1 54039U 22132E   26064.52694388  .00047820  00000+0  55359-3 0  9994
2 54039  97.2958  67.7190 0020758 104.7871 255.5688 15.61437567189724
GSLV R/B                
1 54149U 22138AN  26064.70944186  .00004682  00000+0  40528-3 0  9997
2 54149  87.3887 167.6944 0022469 160.4976 199.7121 14.96742639183338
XRISM                   
1 57800U 23137A   26064.81039654  .00007125  00000+0  40521-3 0  9999
2 57800  31.0028 308.7544 0008081 358.9936   1.0685 15.11447555137208
ACS3                    
1 59588U 24077B   26064.82551608  .00028446  00000+0  22955-1 0  9995
2 59588  97.2101   6.8063 0056747  86.8820 273.8835 13.89413000 93660
SZ-21 MODULE            
1 66515U 25246C   26064.80716873  .00041310  00000+0  36032-3 0  9995
2 66515  41.4734 227.2544 0001428 292.1430  67.9260 15.68194204 17468
